NORAD_CAT_ID,OBJECT_NAME,OBJECT_TYPE,EPOCH,MEAN_MOTION,ECCENTRICITY,INCLINATION,RA_OF_ASC_NODE,ARG_OF_PERICENTER,MEAN_ANOMALY,BSTAR,MEAN_MOTION_DOT,MEAN_MOTION_DDOT,TLE_LINE0,TLE_LINE1,TLE_LINE2,SEMIMAJOR_AXIS,PERIOD,APOGEE,PERIGEE,DECAYED
51106.0,STARLINK-3176,PAYLOAD,2022-12-19 20:44:24,15.08842493,0.0003623,53.2163,167.5955,52.1101,308.0219,0.00018728,2.693e-05,0.0,0 STARLINK-3176,1 51106U 22005C   22353.86416816  .00002693  00000-0  18728-3 0  9996,2 51106  53.2163 167.5955 0003623  52.1101 308.0219 15.08842493 51369,6917.873000000001,95.437,542.244,537.231,0.0
51106.0,STARLINK-3176,PAYLOAD,2022-12-20 06:16:42,15.08849204,0.0003671,53.2152,165.8112,52.7383,307.3944,0.00023353,3.431e-05,0.0,0 STARLINK-3176,1 51106U 22005C   22354.26160528  .00003431  00000-0  23353-3 0  9998,2 51106  53.2152 165.8112 0003671  52.7383 307.3944 15.08849204 51425,6917.852,95.437,542.257,537.178,0.0
51106.0,STARLINK-3176,PAYLOAD,2022-12-20 20:35:11,15.08841244,0.0003658,53.2152,163.1346,53.8501,306.2829,3.9618e-05,3.42e-06,0.0,0 STARLINK-3176,1 51106U 22005C   22354.85776742  .00000342  00000-0  39618-4 0  9994,2 51106  53.2152 163.1346 0003658  53.8501 306.2829 15.08841244 52623,6917.877,95.437,542.2719999999998,537.211,0.0
51106.0,STARLINK-3176,PAYLOAD,2022-12-21 06:07:29,15.08842638,0.0003627,53.2154,161.3507,53.9928,306.14,4.3719e-05,4.07e-06,0.0,0 STARLINK-3176,1 51106U 22005C   22355.25520675  .00000407  00000-0  43719-4 0  9990,2 51106  53.2154 161.3507 0003627  53.9928 306.1400 15.08842638 51579,6917.871999999999,95.437,542.246,537.2280000000002,0.0
51106.0,STARLINK-3176,PAYLOAD,2022-12-22 04:22:54,15.08833627,0.0003406,53.2159,157.1887,57.7904,302.3418,-8.467e-05,-1.636e-05,0.0,0 STARLINK-3176,1 51106U 22005C   22356.18257057 -.00001636  00000-0 -84670-4 0  9992,2 51106  53.2159 157.1887 0003406  57.7904 302.3418 15.08833627 52823,6917.9,95.438,542.121,537.409,0.0
51106.0,STARLINK-3176,PAYLOAD,2022-12-22 10:44:26,15.08837594,0.0003632,53.2174,155.9985,55.6741,304.4594,2.8513000000000013e-05,1.65e-06,0.0,0 STARLINK-3176,1 51106U 22005C   22356.44753226  .00000165  00000-0  28513-4 0  9998,2 51106  53.2174 155.9985 0003632  55.6741 304.4594 15.08837594 51758,6917.888000000001,95.438,542.265,537.24,0.0
51106.0,STARLINK-3176,PAYLOAD,2022-12-22 17:05:59,15.08839684,0.0003557,53.2173,154.8091,56.0836,304.0494,3.2384e-05,2.27e-06,0.0,0 STARLINK-3176,1 51106U 22005C   22356.71249032  .00000227  00000-0  32384-4 0  9993,2 51106  53.2173 154.8091 0003557  56.0836 304.0494 15.08839684 51790,6917.880999999999,95.438,542.207,537.286,0.0
51106.0,STARLINK-3176,PAYLOAD,2022-12-23 04:13:40,15.08843917,0.0003105,53.2176,152.727,61.9024,298.2281,5.235600000000001e-05,5.45e-06,0.0,0 STARLINK-3176,1 51106U 22005C   22357.17616609  .00000545  00000-0  52356-4 0  9996,2 51106  53.2176 152.7270 0003105  61.9024 298.2281 15.08843917 52975,6917.868,95.437,541.881,537.585,0.0
51106.0,STARLINK-3176,PAYLOAD,2022-12-23 12:10:36,15.08847686,0.0003587,53.2175,151.2409,56.4095,303.7239,9.241e-05,1.183e-05,0.0,0 STARLINK-3176,1 51106U 22005C   22357.50736422  .00001183  00000-0  92410-4 0  9993,2 51106  53.2175 151.2409 0003587  56.4095 303.7239 15.08847686 51918,6917.857,95.437,542.203,537.24,0.0
51106.0,STARLINK-3176,PAYLOAD,2022-12-23 20:07:31,15.08850095,0.000356,53.2177,149.7537,57.4047,302.7288,0.00017673,2.526e-05,0.0,0 STARLINK-3176,1 51106U 22005C   22357.83856029  .00002526  00000-0  17673-3 0  9994,2 51106  53.2177 149.7537 0003560  57.4047 302.7288 15.08850095 51969,6917.85,95.437,542.177,537.252,0.0
51106.0,STARLINK-3176,PAYLOAD,2022-12-24 05:39:50,15.08844693,0.0003565,53.2177,147.9698,58.1342,301.9997,0.00021002,3.056e-05,0.0,0 STARLINK-3176,1 51106U 22005C   22358.23600303  .00003056  00000-0  21002-3 0  9991,2 51106  53.2177 147.9698 0003565  58.1342 301.9997 15.08844693 53134,6917.866,95.437,542.197,537.265,0.0
51106.0,STARLINK-3176,PAYLOAD,2022-12-24 16:47:32,15.08848545,0.000362,53.2167,145.8879,58.5521,301.5825,0.0001963,2.838e-05,0.0,0 STARLINK-3176,1 51106U 22005C   22358.69968296  .00002838  00000-0  19630-3 0  9990,2 51106  53.2167 145.8879 0003620  58.5521 301.5825 15.08848545 52096,6917.854,95.437,542.224,537.215,0.0
51106.0,STARLINK-3176,PAYLOAD,2022-12-25 10:16:47,15.08840983,0.0003672,53.2168,142.6168,59.9466,300.189,-3.0558e-05,-7.75e-06,0.0,0 STARLINK-3176,1 51106U 22005C   22359.42832551 -.00000775  00000-0 -30558-4 0  9999,2 51106  53.2168 142.6168 0003672  59.9466 300.1890 15.08840983 53314,6917.877,95.437,542.283,537.202,0.0
51106.0,STARLINK-3176,PAYLOAD,2022-12-25 15:02:57,15.08827909,0.0003503999999999,53.2178,141.7246,58.2466,301.8868,-0.00011414,-2.105e-05,0.0,0 STARLINK-3176,1 51106U 22005C   22359.62705867 -.00002105  00000-0 -11414-3 0  9998,2 51106  53.2178 141.7246 0003504  58.2466 301.8868 15.08827909 53347,6917.917,95.438,542.206,537.3580000000002,0.0
51106.0,STARLINK-3176,PAYLOAD,2022-12-26 10:07:35,15.08831654,0.0003425,53.218,138.1569,56.0926,304.0392,-2.132e-05,-6.28e-06,0.0,0 STARLINK-3176,1 51106U 22005C   22360.42193781 -.00000628  00000-0 -21320-4 0  9990,2 51106  53.2180 138.1569 0003425  56.0926 304.0392 15.08831654 52356,6917.906,95.438,542.14,537.4019999999998,0.0
51106.0,STARLINK-3176,PAYLOAD,2022-12-26 19:39:53,15.08847164,0.000342,53.2177,136.3731,57.0765,303.0556,-7.105100000000001e-05,-1.42e-05,0.0,0 STARLINK-3176,1 51106U 22005C   22360.81937035 -.00001420  00000-0 -71051-4 0  9998,2 51106  53.2177 136.3731 0003420  57.0765 303.0556 15.08847164 53524,6917.858,95.437,542.089,537.3580000000002,0.0
51106.0,STARLINK-3176,PAYLOAD,2022-12-27 08:22:58,15.08840124,0.0003379,53.2181,133.9939,58.3145,301.8176,0.00024461,3.607e-05,0.0,0 STARLINK-3176,1 51106U 22005C   22361.34928546  .00003607  00000-0  24461-3 0  9993,2 51106  53.2181 133.9939 0003379  58.3145 301.8176 15.08840124 52499,6917.88,95.438,542.0830000000002,537.4069999999998,0.0
51106.0,STARLINK-3176,PAYLOAD,2022-12-28 11:24:31,15.08840907,0.000305,53.2175,128.9367,57.6868,302.442,0.00022531,3.299e-05,0.0,0 STARLINK-3176,1 51106U 22005C   22362.47536628  .00003299  00000-0  22531-3 0  9997,2 51106  53.2175 128.9367 0003050  57.6868 302.4420 15.08840907 52668,6917.878000000002,95.437,541.8530000000002,537.633,0.0
51106.0,STARLINK-3176,PAYLOAD,2022-12-29 08:04:33,15.08834295,0.0002973,53.2177,125.0703,73.7613,286.3706,-0.00011405,-2.103e-05,0.0,0 STARLINK-3176,1 51106U 22005C   22363.33649923 -.00002103  00000-0 -11405-3 0  9999,2 51106  53.2177 125.0703 0002973  73.7613 286.3706 15.08834295 52796,6917.898,95.438,541.82,537.706,0.0
51106.0,STARLINK-3176,PAYLOAD,2022-12-29 14:26:06,15.08830459,0.0003027,53.2194,123.8812,67.5203,292.611,-8.615299999999999e-05,-1.659e-05,0.0,0 STARLINK-3176,1 51106U 22005C   22363.60146459 -.00001659  00000-0 -86153-4 0  9993,2 51106  53.2194 123.8812 0003027  67.5203 292.6110 15.08830459 53944,6917.91,95.438,541.869,537.681,0.0
51106.0,STARLINK-3176,PAYLOAD,2022-12-30 07:55:20,15.08827744,0.0003291,53.2184,120.6139,58.3947,301.7366,9.6176e-05,1.242e-05,0.0,0 STARLINK-3176,1 51106U 22005C   22364.33010363  .00001242  00000-0  96176-4 0  9990,2 51106  53.2184 120.6139 0003291  58.3947 301.7366 15.08827744 52943,6917.918000000002,95.438,542.06,537.506,0.0
51106.0,STARLINK-3176,PAYLOAD,2022-12-30 12:41:29,15.08835806,0.0002841,53.2193,119.7229,55.2339,304.892,8.686e-05,1.094e-05,0.0,0 STARLINK-3176,1 51106U 22005C   22364.52881822  .00001094  00000-0  86860-4 0  9991,2 51106  53.2193 119.7229 0002841  55.2339 304.8920 15.08835806 54088,6917.893,95.438,541.724,537.793,0.0
51106.0,STARLINK-3176,PAYLOAD,2022-12-30 17:27:38,15.08850529,0.0003029,53.2184,118.8288,56.2408,303.8873,0.00027078,4.025e-05,0.0,0 STARLINK-3176,1 51106U 22005C   22364.72752581  .00004025  00000-0  27078-3 0  9994,2 51106  53.2184 118.8288 0003029  56.2408 303.8873 15.08850529 54119,6917.848000000001,95.437,541.809,537.618,0.0
51106.0,STARLINK-3176,PAYLOAD,2022-12-31 14:07:38,15.08844303,0.0002918999999999,53.2193,114.9644,54.8215,305.305,0.00035047,5.295e-05,0.0,0 STARLINK-3176,1 51106U 22005C   22365.58864248  .00005295  00000-0  35047-3 0  9998,2 51106  53.2193 114.9644 0002919  54.8215 305.3050 15.08844303 54240,6917.8669999999975,95.437,541.752,537.7130000000002,0.0
51106.0,STARLINK-3176,PAYLOAD,2022-12-31 17:18:25,15.08842688,0.0002923,53.2191,114.3698,54.4642,305.6623,0.00031681,4.758e-05,0.0,0 STARLINK-3176,1 51106U 22005C   22365.72112312  .00004758  00000-0  31681-3 0  9995,2 51106  53.2191 114.3698 0002923  54.4642 305.6623 15.08842688 53158,6917.871999999999,95.437,541.759,537.715,0.0
51106.0,STARLINK-3176,PAYLOAD,2023-01-01 07:36:54,15.0884244,0.0002513,53.2196,111.6925,52.8998,307.2223,-0.00017697,-3.104e-05,0.0,0 STARLINK-3176,1 51106U 22005C   23001.31729871 -.00003104  00000-0 -17697-3 0  9999,2 51106  53.2196 111.6925 0002513  52.8998 307.2223 15.08842440 54350,6917.873000000001,95.437,541.476,537.999,0.0
51106.0,STARLINK-3176,PAYLOAD,2023-01-01 13:58:27,15.08830988,0.0002679,53.2197,110.5032,49.3912,310.7313,-0.00025671,-4.371e-05,0.0,0 STARLINK-3176,1 51106U 22005C   23001.58226847 -.00004371  00000-0 -25671-3 0  9991,2 51106  53.2197 110.5032 0002679  49.3912 310.7313 15.08830988 54395,6917.908,95.438,541.626,537.92,0.0
51106.0,STARLINK-3176,PAYLOAD,2023-01-01 17:09:14,15.08829997,0.0002623,53.2185,109.9096,46.8449,313.2762,-0.00019219,-3.345e-05,0.0,0 STARLINK-3176,1 51106U 22005C   23001.71474778 -.00003345  00000-0 -19219-3 0  9995,2 51106  53.2185 109.9096 0002623  46.8449 313.2762 15.08829997 53304,6917.911,95.438,541.591,537.961,0.0
51106.0,STARLINK-3176,PAYLOAD,2023-01-01 23:30:46,15.08838154,0.0002675,53.2183,108.7205,47.1055,313.0161,-0.00018184,-3.181e-05,0.0,0 STARLINK-3176,1 51106U 22005C   23001.97970277 -.00003181  00000-0 -18184-3 0  9996,2 51106  53.2183 108.7205 0002675  47.1055 313.0161 15.08838154 54458,6917.886,95.438,541.602,537.9,0.0
